<?xml version="1.0" encoding="UTF-8"?>
<ndm xmlns:xsi="http://www.w3.org/2001/XMLSchema-instance" xsi:noNamespaceSchemaLocation="https://sanaregistry.org/r/ndmxml_unqualified/ndmxml-2.0.0-master-2.0.xsd">
<omm id="CCSDS_OMM_VERS" version="2.0">
<header><CREATION_DATE/><ORIGINATOR/></header><body><segment><metadata><OBJECT_NAME>ONEWEB-0205</OBJECT_NAME><OBJECT_ID>2021-031S</OBJECT_ID><CENTER_NAME>EARTH</CENTER_NAME><REF_FRAME>TEME</REF_FRAME><TIME_SYSTEM>UTC</TIME_SYSTEM><MEAN_ELEMENT_THEORY>SGP4</MEAN_ELEMENT_THEORY></metadata><data><meanElements><EPOCH>2023-11-09T21:12:03.005568</EPOCH><MEAN_MOTION>13.14550341</MEAN_MOTION><ECCENTRICITY>.0001569</ECCENTRICITY><INCLINATION>87.8938</INCLINATION><RA_OF_ASC_NODE>118.8667</RA_OF_ASC_NODE><ARG_OF_PERICENTER>101.0889</ARG_OF_PERICENTER><MEAN_ANOMALY>259.0418</MEAN_ANOMALY></meanElements><tleParameters><EPHEMERIS_TYPE>0</EPHEMERIS_TYPE><CLASSIFICATION_TYPE>U</CLASSIFICATION_TYPE><NORAD_CAT_ID>48226</NORAD_CAT_ID><ELEMENT_SET_NO>999</ELEMENT_SET_NO><REV_AT_EPOCH>12342</REV_AT_EPOCH><BSTAR>-.37339E-3</BSTAR><MEAN_MOTION_DOT>-.126E-5</MEAN_MOTION_DOT><MEAN_MOTION_DDOT>0</MEAN_MOTION_DDOT></tleParameters></data></segment></body></omm>
<omm id="CCSDS_OMM_VERS" version="2.0">
<header><CREATION_DATE/><ORIGINATOR/></header><body><segment><metadata><OBJECT_NAME>ONEWEB-0206</OBJECT_NAME><OBJECT_ID>2021-031T</OBJECT_ID><CENTER_NAME>EARTH</CENTER_NAME><REF_FRAME>TEME</REF_FRAME><TIME_SYSTEM>UTC</TIME_SYSTEM><MEAN_ELEMENT_THEORY>SGP4</MEAN_ELEMENT_THEORY></metadata><data><meanElements><EPOCH>2023-11-09T22:22:46.625376</EPOCH><MEAN_MOTION>13.14455747</MEAN_MOTION><ECCENTRICITY>.0001675</ECCENTRICITY><INCLINATION>87.8947</INCLINATION><RA_OF_ASC_NODE>118.8457</RA_OF_ASC_NODE><ARG_OF_PERICENTER>100.1095</ARG_OF_PERICENTER><MEAN_ANOMALY>260.0223</MEAN_ANOMALY></meanElements><tleParameters><EPHEMERIS_TYPE>0</EPHEMERIS_TYPE><CLASSIFICATION_TYPE>U</CLASSIFICATION_TYPE><NORAD_CAT_ID>48227</NORAD_CAT_ID><ELEMENT_SET_NO>999</ELEMENT_SET_NO><REV_AT_EPOCH>12338</REV_AT_EPOCH><BSTAR>.16384E-3</BSTAR><MEAN_MOTION_DOT>.73E-6</MEAN_MOTION_DOT><MEAN_MOTION_DDOT>0</MEAN_MOTION_DDOT></tleParameters></data></segment></body></omm>
<omm id="CCSDS_OMM_VERS" version="2.0">
<header><CREATION_DATE/><ORIGINATOR/></header><body><segment><metadata><OBJECT_NAME>ONEWEB-0182</OBJECT_NAME><OBJECT_ID>2021-031U</OBJECT_ID><CENTER_NAME>EARTH</CENTER_NAME><REF_FRAME>TEME</REF_FRAME><TIME_SYSTEM>UTC</TIME_SYSTEM><MEAN_ELEMENT_THEORY>SGP4</MEAN_ELEMENT_THEORY></metadata><data><meanElements><EPOCH>2023-11-09T22:15:43.077024</EPOCH><MEAN_MOTION>13.14125578</MEAN_MOTION><ECCENTRICITY>.0001753</ECCENTRICITY><INCLINATION>87.8956</INCLINATION><RA_OF_ASC_NODE>118.8705</RA_OF_ASC_NODE><ARG_OF_PERICENTER>94.0055</ARG_OF_PERICENTER><MEAN_ANOMALY>266.1275</MEAN_ANOMALY></meanElements><tleParameters><EPHEMERIS_TYPE>0</EPHEMERIS_TYPE><CLASSIFICATION_TYPE>U</CLASSIFICATION_TYPE><NORAD_CAT_ID>48228</NORAD_CAT_ID><ELEMENT_SET_NO>999</ELEMENT_SET_NO><REV_AT_EPOCH>12359</REV_AT_EPOCH><BSTAR>-.4879E-2</BSTAR><MEAN_MOTION_DOT>-.1786E-4</MEAN_MOTION_DOT><MEAN_MOTION_DDOT>0</MEAN_MOTION_DDOT></tleParameters></data></segment></body></omm>
<omm id="CCSDS_OMM_VERS" version="2.0">
<header><CREATION_DATE/><ORIGINATOR/></header><body><segment><metadata><OBJECT_NAME>ONEWEB-0186</OBJECT_NAME><OBJECT_ID>2021-031V</OBJECT_ID><CENTER_NAME>EARTH</CENTER_NAME><REF_FRAME>TEME</REF_FRAME><TIME_SYSTEM>UTC</TIME_SYSTEM><MEAN_ELEMENT_THEORY>SGP4</MEAN_ELEMENT_THEORY></metadata><data><meanElements><EPOCH>2023-11-09T22:31:52.832352</EPOCH><MEAN_MOTION>13.14452098</MEAN_MOTION><ECCENTRICITY>.0001432</ECCENTRICITY><INCLINATION>87.8938</INCLINATION><RA_OF_ASC_NODE>118.8302</RA_OF_ASC_NODE><ARG_OF_PERICENTER>94.9665</ARG_OF_PERICENTER><MEAN_ANOMALY>265.1628</MEAN_ANOMALY></meanElements><tleParameters><EPHEMERIS_TYPE>0</EPHEMERIS_TYPE><CLASSIFICATION_TYPE>U</CLASSIFICATION_TYPE><NORAD_CAT_ID>48229</NORAD_CAT_ID><ELEMENT_SET_NO>999</ELEMENT_SET_NO><REV_AT_EPOCH>12354</REV_AT_EPOCH><BSTAR>-.86416E-3</BSTAR><MEAN_MOTION_DOT>-.307E-5</MEAN_MOTION_DOT><MEAN_MOTION_DDOT>0</MEAN_MOTION_DDOT></tleParameters></data></segment></body></omm>
<omm id="CCSDS_OMM_VERS" version="2.0">
<header><CREATION_DATE/><ORIGINATOR/></header><body><segment><metadata><OBJECT_NAME>ONEWEB-0181</OBJECT_NAME><OBJECT_ID>2021-031W</OBJECT_ID><CENTER_NAME>EARTH</CENTER_NAME><REF_FRAME>TEME</REF_FRAME><TIME_SYSTEM>UTC</TIME_SYSTEM><MEAN_ELEMENT_THEORY>SGP4</MEAN_ELEMENT_THEORY></metadata><data><meanElements><EPOCH>2023-11-09T21:59:47.727168</EPOCH><MEAN_MOTION>13.14242261</MEAN_MOTION><ECCENTRICITY>.0000957</ECCENTRICITY><INCLINATION>87.8924</INCLINATION><RA_OF_ASC_NODE>118.9074</RA_OF_ASC_NODE><ARG_OF_PERICENTER>102.9127</ARG_OF_PERICENTER><MEAN_ANOMALY>257.2109</MEAN_ANOMALY></meanElements><tleParameters><EPHEMERIS_TYPE>0</EPHEMERIS_TYPE><CLASSIFICATION_TYPE>U</CLASSIFICATION_TYPE><NORAD_CAT_ID>48230</NORAD_CAT_ID><ELEMENT_SET_NO>999</ELEMENT_SET_NO><REV_AT_EPOCH>12339</REV_AT_EPOCH><BSTAR>-.43174E-2</BSTAR><MEAN_MOTION_DOT>-.1581E-4</MEAN_MOTION_DOT><MEAN_MOTION_DDOT>0</MEAN_MOTION_DDOT></tleParameters></data></segment></body></omm>
<omm id="CCSDS_OMM_VERS" version="2.0">
<header><CREATION_DATE/><ORIGINATOR/></header><body><segment><metadata><OBJECT_NAME>ONEWEB-0188</OBJECT_NAME><OBJECT_ID>2021-031X</OBJECT_ID><CENTER_NAME>EARTH</CENTER_NAME><REF_FRAME>TEME</REF_FRAME><TIME_SYSTEM>UTC</TIME_SYSTEM><MEAN_ELEMENT_THEORY>SGP4</MEAN_ELEMENT_THEORY></metadata><data><meanElements><EPOCH>2023-11-09T21:05:14.771616</EPOCH><MEAN_MOTION>13.14627088</MEAN_MOTION><ECCENTRICITY>.0002062</ECCENTRICITY><INCLINATION>87.8939</INCLINATION><RA_OF_ASC_NODE>118.9135</RA_OF_ASC_NODE><ARG_OF_PERICENTER>115.4925</ARG_OF_PERICENTER><MEAN_ANOMALY>244.6419</MEAN_ANOMALY></meanElements><tleParameters><EPHEMERIS_TYPE>0</EPHEMERIS_TYPE><CLASSIFICATION_TYPE>U</CLASSIFICATION_TYPE><NORAD_CAT_ID>48231</NORAD_CAT_ID><ELEMENT_SET_NO>999</ELEMENT_SET_NO><REV_AT_EPOCH>12329</REV_AT_EPOCH><BSTAR>.12049E-1</BSTAR><MEAN_MOTION_DOT>.449E-4</MEAN_MOTION_DOT><MEAN_MOTION_DDOT>0</MEAN_MOTION_DDOT></tleParameters></data></segment></body></omm>
<omm id="CCSDS_OMM_VERS" version="2.0">
<header><CREATION_DATE/><ORIGINATOR/></header><body><segment><metadata><OBJECT_NAME>ONEWEB-0220</OBJECT_NAME><OBJECT_ID>2021-031Y</OBJECT_ID><CENTER_NAME>EARTH</CENTER_NAME><REF_FRAME>TEME</REF_FRAME><TIME_SYSTEM>UTC</TIME_SYSTEM><MEAN_ELEMENT_THEORY>SGP4</MEAN_ELEMENT_THEORY></metadata><data><meanElements><EPOCH>2023-11-09T22:02:07.156896</EPOCH><MEAN_MOTION>13.14373482</MEAN_MOTION><ECCENTRICITY>.0001579</ECCENTRICITY><INCLINATION>87.8938</INCLINATION><RA_OF_ASC_NODE>118.8759</RA_OF_ASC_NODE><ARG_OF_PERICENTER>109.5208</ARG_OF_PERICENTER><MEAN_ANOMALY>250.6092</MEAN_ANOMALY></meanElements><tleParameters><EPHEMERIS_TYPE>0</EPHEMERIS_TYPE><CLASSIFICATION_TYPE>U</CLASSIFICATION_TYPE><NORAD_CAT_ID>48232</NORAD_CAT_ID><ELEMENT_SET_NO>999</ELEMENT_SET_NO><REV_AT_EPOCH>12356</REV_AT_EPOCH><BSTAR>.48124E-2</BSTAR><MEAN_MOTION_DOT>.1794E-4</MEAN_MOTION_DOT><MEAN_MOTION_DDOT>0</MEAN_MOTION_DDOT></tleParameters></data></segment></body></omm>
<omm id="CCSDS_OMM_VERS" version="2.0">
<header><CREATION_DATE/><ORIGINATOR/></header><body><segment><metadata><OBJECT_NAME>ONEWEB-0165</OBJECT_NAME><OBJECT_ID>2021-031Z</OBJECT_ID><CENTER_NAME>EARTH</CENTER_NAME><REF_FRAME>TEME</REF_FRAME><TIME_SYSTEM>UTC</TIME_SYSTEM><MEAN_ELEMENT_THEORY>SGP4</MEAN_ELEMENT_THEORY></metadata><data><meanElements><EPOCH>2023-11-09T20:53:47.936544</EPOCH><MEAN_MOTION>13.14543564</MEAN_MOTION><ECCENTRICITY>.000162</ECCENTRICITY><INCLINATION>87.8942</INCLINATION><RA_OF_ASC_NODE>118.8954</RA_OF_ASC_NODE><ARG_OF_PERICENTER>97.5665</ARG_OF_PERICENTER><MEAN_ANOMALY>262.5649</MEAN_ANOMALY></meanElements><tleParameters><EPHEMERIS_TYPE>0</EPHEMERIS_TYPE><CLASSIFICATION_TYPE>U</CLASSIFICATION_TYPE><NORAD_CAT_ID>48233</NORAD_CAT_ID><ELEMENT_SET_NO>999</ELEMENT_SET_NO><REV_AT_EPOCH>12351</REV_AT_EPOCH><BSTAR>-.22481E-2</BSTAR><MEAN_MOTION_DOT>-.821E-5</MEAN_MOTION_DOT><MEAN_MOTION_DDOT>0</MEAN_MOTION_DDOT></tleParameters></data></segment></body></omm>
<omm id="CCSDS_OMM_VERS" version="2.0">
<header><CREATION_DATE/><ORIGINATOR/></header><body><segment><metadata><OBJECT_NAME>ONEWEB-0199</OBJECT_NAME><OBJECT_ID>2021-031AA</OBJECT_ID><CENTER_NAME>EARTH</CENTER_NAME><REF_FRAME>TEME</REF_FRAME><TIME_SYSTEM>UTC</TIME_SYSTEM><MEAN_ELEMENT_THEORY>SGP4</MEAN_ELEMENT_THEORY></metadata><data><meanElements><EPOCH>2023-11-09T22:20:23.013024</EPOCH><MEAN_MOTION>13.14357018</MEAN_MOTION><ECCENTRICITY>.0001728</ECCENTRICITY><INCLINATION>87.8939</INCLINATION><RA_OF_ASC_NODE>118.8548</RA_OF_ASC_NODE><ARG_OF_PERICENTER>103.4711</ARG_OF_PERICENTER><MEAN_ANOMALY>256.6611</MEAN_ANOMALY></meanElements><tleParameters><EPHEMERIS_TYPE>0</EPHEMERIS_TYPE><CLASSIFICATION_TYPE>U</CLASSIFICATION_TYPE><NORAD_CAT_ID>48234</NORAD_CAT_ID><ELEMENT_SET_NO>999</ELEMENT_SET_NO><REV_AT_EPOCH>12342</REV_AT_EPOCH><BSTAR>.84079E-3</BSTAR><MEAN_MOTION_DOT>.324E-5</MEAN_MOTION_DOT><MEAN_MOTION_DDOT>0</MEAN_MOTION_DDOT></tleParameters></data></segment></body></omm>

</ndm>
